OBJECT B                
1 51825U 22019B   25010.82086043  .00020565  00000+0  66389-3 0  9996
2 51825  97.4068  86.7266 0011027 221.5089 138.5317 15.32096687158908
